HAWK-C                  
1 43799U 18099AT  26068.67261865  .00009431  00000+0  35663-3 0  9994
2 43799  97.4027 122.6817 0040363 277.4052  82.2601 15.26407167398720
STARLINK-31484          
1 59005U 24036H   26068.34573694 -.00001400  00000+0 -35185-4 0  9999
2 59005  53.1600  79.5068 0000064 214.6339 145.4658 15.30188299115274
